[{"OBJECT_NAME":"IRIDIUM 142","OBJECT_ID":"2018-030H","EPOCH":"2026-03-09T19:54:27.398592","MEAN_MOTION":14.34217645,"ECCENTRICITY":0.000204,"INCLINATION":86.4006,"RA_OF_ASC_NODE":331.9079,"ARG_OF_PERICENTER":94.7375,"MEAN_ANOMALY":265.4053,"EPHEMERIS_TYPE":0,"CLASSIFICATION_TYPE":"U","NORAD_CAT_ID":43256,"ELEMENT_SET_NO":999,"REV_AT_EPOCH":41589,"BSTAR":-2.157633e-6,"MEAN_MOTION_DOT":1.4e-7,"MEAN_MOTION_DDOT":0},{"OBJECT_NAME":"NOAA 16 DEB","OBJECT_ID":"2000-055GP","EPOCH":"2026-03-09T10:52:04.956960","MEAN_MOTION":14.27713512,"ECCENTRICITY":0.00340841,"INCLINATION":98.8648,"RA_OF_ASC_NODE":141.2419,"ARG_OF_PERICENTER":161.5534,"MEAN_ANOMALY":198.689,"EPHEMERIS_TYPE":0,"CLASSIFICATION_TYPE":"U","NORAD_CAT_ID":41287,"ELEMENT_SET_NO":999,"REV_AT_EPOCH":52504,"BSTAR":0.0027808414,"MEAN_MOTION_DOT":6.863e-5,"MEAN_MOTION_DDOT":0}]
